0 FENGYUN 1C DEB
1 29975U 99025KZ  13281.08224777 -.00000128  00000-0 -57369-4 0  1842
2 29975 099.0414 220.1142 0114732 262.5107 161.6191 13.96353517343316
0 FENGYUN 1C DEB
1 29975U 99025KZ  13282.45848826 -.00000084  00000-0 -26991-4 0  1850
2 29975 099.0415 221.4667 0114756 258.6955 239.8457 13.96353925343503
0 FENGYUN 1C DEB
1 29975U 99025KZ  13283.73283127 -.00000048  00000-0 -20103-5 0  1860
2 29975 099.0417 222.7189 0114770 255.1632 165.8441 13.96353457343688
0 FENGYUN 1C DEB
1 29975U 99025KZ  13286.81504218  .00000163  00000-0  14258-3 0  1889
2 29975 099.0424 225.7474 0114717 246.6242 179.8133 13.96352156344116
0 FENGYUN 1C DEB
1 29975U 99025KZ  13288.74818939  .00000348  00000-0  26945-3 0  1893
2 29975 099.0430 227.6468 0114717 241.2699 177.5501 13.96351922344387
0 FENGYUN 1C DEB
1 29975U 99025KZ  13289.82206372  .00000423  00000-0  32096-3 0  1905
2 29975 099.0434 228.7020 0114738 238.3067 175.7966 13.96352155344537
0 FENGYUN 1C DEB
1 29975U 99025KZ  13291.34688863  .00000492  00000-0  36797-3 0  1913
2 29975 099.0437 230.2004 0114741 234.0949 280.9252 13.96352793344744
0 FENGYUN 1C DEB
1 29975U 99025KZ  13292.83257106  .00000503  00000-0  37598-3 0  1924
2 29975 099.0439 231.6605 0114754 229.9896 189.2920 13.96354025344952
0 FENGYUN 1C DEB
1 29975U 99025KZ  13293.83596495  .00000458  00000-0  34506-3 0  1938
2 29975 099.0440 232.6467 0114766 227.2182 193.2462 13.96355347345093
0 FENGYUN 1C DEB
1 29975U 99025KZ  13294.90736117  .00000376  00000-0  28845-3 0  1943
2 29975 099.0442 233.6997 0114806 224.2717 179.0314 13.96357026345241
